OBJECT_NAME,OBJECT_ID,EPOCH,MEAN_MOTION,ECCENTRICITY,INCLINATION,RA_OF_ASC_NODE,ARG_OF_PERICENTER,MEAN_ANOMALY,EPHEMERIS_TYPE,CLASSIFICATION_TYPE,NORAD_CAT_ID,ELEMENT_SET_NO,REV_AT_EPOCH,BSTAR,MEAN_MOTION_DOT,MEAN_MOTION_DDOT
ONEWEB-0572,2023-004M,2026-06-11T01:33:15.057504,13.17648113,.00018923,87.9135,7.0838,93.6049,266.5299,0,U,55151,999,16667,.29109046E-4,.24E-6,0
ONEWEB-0573,2023-004N,2026-06-11T01:04:35.183424,13.18685728,.00019968,87.9158,336.6921,117.9652,242.1682,0,U,55152,999,16888,.83435213E-4,.46E-6,0
ONEWEB-0588,2023-004P,2026-06-11T04:33:23.567904,13.18685068,.00022928,87.9156,336.6634,98.7312,261.4080,0,U,55153,999,16890,.11507553E-4,.17E-6,0
ONEWEB-0598,2023-004Q,2026-06-11T03:11:15.470016,13.11418650,.00014673,87.8890,22.2742,107.5917,252.5372,0,U,55154,999,16510,.13010135E-2,.474E-5,0
ONEWEB-0599,2023-004R,2026-06-11T02:26:42.883872,13.17648417,.00016257,87.9136,7.0748,86.5563,273.5755,0,U,55155,999,16668,.401208E-4,.28E-6,0
ONEWEB-0614,2023-004S,2026-06-11T03:03:55.299168,13.11419496,.00020379,87.8889,22.2840,82.6122,277.5237,0,U,55156,999,16504,.10537076E-2,.386E-5,0
ONEWEB-0616,2023-004T,2026-06-11T01:38:07.384992,13.17648507,.00011286,87.9138,7.0852,63.0190,297.1057,0,U,55157,999,16689,.78000937E-4,.43E-6,0
ONEWEB-0617,2023-004U,2026-06-11T02:46:50.107872,13.11419221,.00022478,87.8897,22.2771,87.0434,273.0951,0,U,55158,999,16506,-.35345582E-3,-.113E-5,0
ONEWEB-0618,2023-004V,2026-06-11T02:33:33.213024,15.13098785,.00104008,86.9099,180.1026,327.7426,32.3177,0,U,55159,999,18134,.18266916E-3,.3268E-4,0
ONEWEB-0619,2023-004W,2026-06-11T02:24:17.671392,13.17648666,.00020336,87.9147,7.0588,76.2631,283.8727,0,U,55160,999,16679,.12202256E-3,.6E-6,0
ONEWEB-0620,2023-004X,2026-06-11T02:39:29.276928,13.11419836,.00018257,87.8891,22.2871,93.3437,266.7900,0,U,55161,999,16503,-.93060154E-3,-.317E-5,0
ONEWEB-0621,2023-004Y,2026-06-11T03:18:34.776000,13.11417574,.00020271,87.8899,22.2697,81.5830,278.5527,0,U,55162,999,16501,.15123398E-2,.549E-5,0
ONEWEB-0622,2023-004Z,2026-06-11T03:25:54.608160,13.11416695,.0002511,87.8900,22.2711,92.3286,267.8130,0,U,55163,999,16500,.15304981E-2,.555E-5,0
ONEWEB-0623,2023-004AA,2026-06-11T02:16:59.705472,13.17649890,.00025904,87.9131,7.0910,81.2637,278.8788,0,U,55164,999,16678,.33142642E-3,.142E-5,0
ONEWEB-0624,2023-004AB,2026-06-11T06:00:50.737536,13.12928401,.0001903,87.8943,351.7671,87.8092,272.3255,0,U,55165,999,16729,-.86392547E-3,-.3E-5,0
ONEWEB-0625,2023-004AC,2026-06-11T02:02:25.552608,13.17648446,.00017379,87.9135,7.0886,82.9724,277.1605,0,U,55166,999,16677,.47985876E-4,.32E-6,0
ONEWEB-0626,2023-004AD,2026-06-11T01:47:51.090432,13.17648821,.00017701,87.9135,7.0903,101.2143,258.9188,0,U,55167,999,16677,.63007833E-4,.37E-6,0
ONEWEB-0627,2023-004AE,2026-06-11T01:30:49.127904,13.17647755,.00023396,87.9136,7.0930,82.8756,277.2642,0,U,55168,999,16677,.90920714E-4,.48E-6,0
ONEWEB-0628,2023-004AF,2026-06-11T05:30:56.225088,13.12443347,.00024262,87.8947,351.8378,80.7051,279.4352,0,U,55169,999,16725,-.8997179E-4,-.2E-6,0
ONEWEB-0629,2023-004AG,2026-06-11T06:23:37.177728,13.17649871,.00019446,87.9134,7.0484,77.9805,282.1545,0,U,55170,999,16680,-.4586895E-3,-.165E-5,0
ONEWEB-0631,2023-004AH,2026-06-11T04:23:40.741152,13.18685176,.00021342,87.9167,336.6302,104.0181,256.1189,0,U,55171,999,16888,.96868496E-4,.51E-6,0
ONEWEB-0709,2023-004AJ,2026-06-11T02:24:50.666688,13.11415858,.00015094,87.8890,22.2910,113.4903,246.6384,0,U,55172,999,16507,-.14191534E-2,-.49E-5,0
ONEWEB-0710,2023-004AK,2026-06-11T03:05:35.858400,13.17649152,.00020206,87.9135,7.0713,87.5771,272.5592,0,U,55173,999,16678,.99065E-6,.13E-6,0
ONEWEB-0711,2023-004AL,2026-06-11T03:33:14.710752,13.11416794,.00025614,87.8892,22.2687,85.4236,274.7184,0,U,55174,999,16504,.1113584E-2,.407E-5,0
ONEWEB-0713,2023-004AM,2026-06-11T04:00:04.586400,13.11414493,.00022113,87.8894,22.2665,85.5677,274.5704,0,U,55175,999,16503,-.10005029E-2,-.342E-5,0
ONEWEB-0715,2023-004AN,2026-06-11T03:52:45.190560,13.11415847,.00018703,87.8891,22.2685,106.7561,253.3772,0,U,55176,999,16507,-.38437098E-3,-.124E-5,0
ONEWEB-0716,2023-004AP,2026-06-11T06:34:34.401792,13.17649489,.0001648,87.9139,7.0449,82.6344,277.4975,0,U,55177,999,16680,.10556682E-3,.54E-6,0
ONEWEB-0717,2023-004AQ,2026-06-11T06:10:16.297248,13.17648270,.00023969,87.9146,7.0353,92.2781,267.8625,0,U,55178,999,16685,.13716996E-3,.66E-6,0
ONEWEB-0719,2023-004AR,2026-06-11T02:46:09.895584,13.17648737,.00017968,87.9146,7.0439,80.7021,279.4314,0,U,55179,999,16678,.15146078E-4,.19E-6,0
ONEWEB-0530,2023-029A,2026-06-11T00:42:19.430784,13.20771028,.00023671,87.9180,275.6967,94.1217,266.0187,0,U,55796,999,16033,.7519039E-4,.44E-6,0
