1 55151U 23004M 26162.06475761 .00000024 00000+0 29109-4 0 9999 
2 55151 87.9135 7.0838 0001892 93.6049 266.5299 13.17648113166679 
1 55152U 23004N 26162.04485166 .00000046 00000+0 83435-4 0 9994 
2 55152 87.9158 336.6921 0001996 117.9652 242.1682 13.18685728168889 
1 55153U 23004P 26162.18985611 .00000017 00000+0 11508-4 0 9990 
2 55153 87.9156 336.6634 0002292 98.7312 261.4080 13.18685068168904 
1 55154U 23004Q 26162.13281794 .00000474 00000+0 13010-2 0 9992 
2 55154 87.8890 22.2742 0001467 107.5917 252.5372 13.11418650165108 
1 55155U 23004R 26162.10188523 .00000028 00000+0 40121-4 0 9996 
2 55155 87.9136 7.0748 0001625 86.5563 273.5755 13.17648417166683 
1 55156U 23004S 26162.12772337 .00000386 00000+0 10537-2 0 9994 
2 55156 87.8889 22.2840 0002037 82.6122 277.5237 13.11419496165041 
1 55157U 23004T 26162.06814103 .00000043 00000+0 78001-4 0 9998 
2 55157 87.9138 7.0852 0001128 63.0190 297.1057 13.17648507166897 
1 55158U 23004U 26162.11585773 -.00000113 00000+0 -35346-3 0 9997 
2 55158 87.8897 22.2771 0002247 87.0434 273.0951 13.11419221165065 
1 55159U 23004V 26162.10663441 .00003268 00000+0 18267-3 0 9991 
2 55159 86.9099 180.1026 0010400 327.7426 32.3177 15.13098785181349 
1 55160U 23004W 26162.10020453 .00000060 00000+0 12202-3 0 9993 
2 55160 87.9147 7.0588 0002033 76.2631 283.8727 13.17648666166790 
1 55161U 23004X 26162.11075552 -.00000317 00000+0 -93060-3 0 9993 
2 55161 87.8891 22.2871 0001825 93.3437 266.7900 13.11419836165030 
1 55162U 23004Y 26162.13790250 .00000549 00000+0 15123-2 0 9993 
2 55162 87.8899 22.2697 0002027 81.5830 278.5527 13.11417574165017 
1 55163U 23004Z 26162.14299315 .00000555 00000+0 15305-2 0 9990 
2 55163 87.8900 22.2711 0002511 92.3286 267.8130 13.11416695165004 
1 55164U 23004AA 26162.09513548 .00000142 00000+0 33143-3 0 9995 
2 55164 87.9131 7.0910 0002590 81.2637 278.8788 13.17649890166786 
1 55165U 23004AB 26162.25058724 -.00000300 00000+0 -86393-3 0 9997 
2 55165 87.8943 351.7671 0001903 87.8092 272.3255 13.12928401167292 
1 55166U 23004AC 26162.08501797 .00000032 00000+0 47986-4 0 9998 
2 55166 87.9135 7.0886 0001737 82.9724 277.1605 13.17648446166776 
1 55167U 23004AD 26162.07489688 .00000037 00000+0 63008-4 0 9990 
2 55167 87.9135 7.0903 0001770 101.2143 258.9188 13.17648821166774 
1 55168U 23004AE 26162.06306861 .00000048 00000+0 90921-4 0 9997 
2 55168 87.9136 7.0930 0002339 82.8756 277.2642 13.17647755166776 
1 55169U 23004AF 26162.22981742 -.00000020 00000+0 -89972-4 0 9999 
2 55169 87.8947 351.8378 0002426 80.7051 279.4352 13.12443347167256 
1 55170U 23004AG 26162.26640252 -.00000165 00000+0 -45869-3 0 9999 
2 55170 87.9134 7.0484 0001944 77.9805 282.1545 13.17649871166804 
1 55171U 23004AH 26162.18311043 .00000051 00000+0 96868-4 0 9992 
2 55171 87.9167 336.6302 0002134 104.0181 256.1189 13.18685176168886 
1 55172U 23004AJ 26162.10058642 -.00000490 00000+0 -14192-2 0 9995 
2 55172 87.8890 22.2910 0001509 113.4903 246.6384 13.11415858165073 
1 55173U 23004AK 26162.12888725 .00000013 00000+0 99065-6 0 9996 
2 55173 87.9135 7.0713 0002020 87.5771 272.5592 13.17649152166782 
1 55174U 23004AL 26162.14808693 .00000407 00000+0 11136-2 0 9991 
2 55174 87.8892 22.2687 0002561 85.4236 274.7184 13.11416794165041 
1 55175U 23004AM 26162.16671975 -.00000342 00000+0 -10005-2 0 9999 
2 55175 87.8894 22.2665 0002211 85.5677 274.5704 13.11414493165031 
1 55176U 23004AN 26162.16163415 -.00000124 00000+0 -38437-3 0 9993 
2 55176 87.8891 22.2685 0001870 106.7561 253.3772 13.11415847165077 
1 55177U 23004AP 26162.27400928 .00000054 00000+0 10557-3 0 9992 
2 55177 87.9139 7.0449 0001648 82.6344 277.4975 13.17649489166808 
1 55178U 23004AQ 26162.25713307 .00000066 00000+0 13717-3 0 9993 
2 55178 87.9146 7.0353 0002396 92.2781 267.8625 13.17648270166851 
1 55179U 23004AR 26162.11539231 .00000019 00000+0 15146-4 0 9998 
2 55179 87.9146 7.0439 0001796 80.7021 279.4314 13.17648737166783 
1 55796U 23029A 26162.02939156 .00000044 00000+0 75190-4 0 9993 
2 55796 87.9180 275.6967 0002367 94.1217 266.0187 13.20771028160335 
